[{"OBJECT_NAME":"GOES 1 (SMS-C)","OBJECT_ID":"1975-100A","EPOCH":"2026-04-05T15:34:40.768608","MEAN_MOTION":1.00244811,"ECCENTRICITY":0.0004725,"INCLINATION":4.7923,"RA_OF_ASC_NODE":278.3689,"ARG_OF_PERICENTER":2.5215,"MEAN_ANOMALY":22.4953,"EPHEMERIS_TYPE":0,"CLASSIFICATION_TYPE":"U","NORAD_CAT_ID":8366,"ELEMENT_SET_NO":999,"REV_AT_EPOCH":18434,"BSTAR":0,"MEAN_MOTION_DOT":3.2e-7,"MEAN_MOTION_DDOT":0},{"OBJECT_NAME":"GOES 2","OBJECT_ID":"1977-048A","EPOCH":"2026-04-05T19:39:11.428128","MEAN_MOTION":0.99400116,"ECCENTRICITY":0.0013723,"INCLINATION":6.5925,"RA_OF_ASC_NODE":293.9749,"ARG_OF_PERICENTER":51.6602,"MEAN_ANOMALY":156.619,"EPHEMERIS_TYPE":0,"CLASSIFICATION_TYPE":"U","NORAD_CAT_ID":10061,"ELEMENT_SET_NO":999,"REV_AT_EPOCH":4555,"BSTAR":0,"MEAN_MOTION_DOT":-6.3e-7,"MEAN_MOTION_DDOT":0},{"OBJECT_NAME":"GOES 3","OBJECT_ID":"1978-062A","EPOCH":"2026-04-05T16:24:58.445856","MEAN_MOTION":0.99358841,"ECCENTRICITY":0.0002048,"INCLINATION":7.0668,"RA_OF_ASC_NODE":299.8422,"ARG_OF_PERICENTER":7.4679,"MEAN_ANOMALY":185.4347,"EPHEMERIS_TYPE":0,"CLASSIFICATION_TYPE":"U","NORAD_CAT_ID":10953,"ELEMENT_SET_NO":999,"REV_AT_EPOCH":12781,"BSTAR":0,"MEAN_MOTION_DOT":1.01e-6,"MEAN_MOTION_DDOT":0},{"OBJECT_NAME":"GOES 4","OBJECT_ID":"1980-074A","EPOCH":"2026-04-05T18:45:46.550592","MEAN_MOTION":0.99233386,"ECCENTRICITY":0.0032709,"INCLINATION":8.1424,"RA_OF_ASC_NODE":303.5088,"ARG_OF_PERICENTER":104.5647,"MEAN_ANOMALY":253.5248,"EPHEMERIS_TYPE":0,"CLASSIFICATION_TYPE":"U","NORAD_CAT_ID":11964,"ELEMENT_SET_NO":999,"REV_AT_EPOCH":12671,"BSTAR":0,"MEAN_MOTION_DOT":-1.05e-6,"MEAN_MOTION_DDOT":0},{"OBJECT_NAME":"GOES 5","OBJECT_ID":"1981-049A","EPOCH":"2026-04-05T14:00:06.358752","MEAN_MOTION":1.0020646,"ECCENTRICITY":0.000409,"INCLINATION":9.4893,"RA_OF_ASC_NODE":316.1451,"ARG_OF_PERICENTER":343.1145,"MEAN_ANOMALY":8.6547,"EPHEMERIS_TYPE":0,"CLASSIFICATION_TYPE":"U","NORAD_CAT_ID":12472,"ELEMENT_SET_NO":999,"REV_AT_EPOCH":12211,"BSTAR":0,"MEAN_MOTION_DOT":-1.52e-6,"MEAN_MOTION_DDOT":0},{"OBJECT_NAME":"GOES 6","OBJECT_ID":"1983-041A","EPOCH":"2026-04-05T15:37:10.530048","MEAN_MOTION":1.00221027,"ECCENTRICITY":0.0001699,"INCLINATION":10.3071,"RA_OF_ASC_NODE":321.7012,"ARG_OF_PERICENTER":311.3325,"MEAN_ANOMALY":39.5544,"EPHEMERIS_TYPE":0,"CLASSIFICATION_TYPE":"U","NORAD_CAT_ID":14050,"ELEMENT_SET_NO":999,"REV_AT_EPOCH":21528,"BSTAR":0,"MEAN_MOTION_DOT":-3.3e-7,"MEAN_MOTION_DDOT":0},{"OBJECT_NAME":"GOES 7","OBJECT_ID":"1987-022A","EPOCH":"2026-04-04T10:14:39.046848","MEAN_MOTION":0.99907334,"ECCENTRICITY":0.00040588,"INCLINATION":12.9934,"RA_OF_ASC_NODE":338.1585,"ARG_OF_PERICENTER":24.865,"MEAN_ANOMALY":168.6782,"EPHEMERIS_TYPE":0,"CLASSIFICATION_TYPE":"U","NORAD_CAT_ID":17561,"ELEMENT_SET_NO":999,"REV_AT_EPOCH":12622,"BSTAR":0,"MEAN_MOTION_DOT":0,"MEAN_MOTION_DDOT":0},{"OBJECT_NAME":"GOES 8","OBJECT_ID":"1994-022A","EPOCH":"2026-04-03T23:34:38.525376","MEAN_MOTION":0.98906605,"ECCENTRICITY":0.00058518,"INCLINATION":14.3674,"RA_OF_ASC_NODE":14.2407,"ARG_OF_PERICENTER":25.8156,"MEAN_ANOMALY":163.3379,"EPHEMERIS_TYPE":0,"CLASSIFICATION_TYPE":"U","NORAD_CAT_ID":23051,"ELEMENT_SET_NO":999,"REV_AT_EPOCH":12339,"BSTAR":0,"MEAN_MOTION_DOT":-1.13e-6,"MEAN_MOTION_DDOT":0},{"OBJECT_NAME":"GOES 9","OBJECT_ID":"1995-025A","EPOCH":"2026-04-04T12:33:59.512608","MEAN_MOTION":0.98799732,"ECCENTRICITY":0.00027776,"INCLINATION":13.8983,"RA_OF_ASC_NODE":15.0896,"ARG_OF_PERICENTER":195.7774,"MEAN_ANOMALY":285.3709,"EPHEMERIS_TYPE":0,"CLASSIFICATION_TYPE":"U","NORAD_CAT_ID":23581,"ELEMENT_SET_NO":999,"REV_AT_EPOCH":11203,"BSTAR":0,"MEAN_MOTION_DOT":-1.64e-6,"MEAN_MOTION_DDOT":0},{"OBJECT_NAME":"GOES 10","OBJECT_ID":"1997-019A","EPOCH":"2026-04-04T03:49:38.799840","MEAN_MOTION":0.99127384,"ECCENTRICITY":0.00300222,"INCLINATION":13.0402,"RA_OF_ASC_NODE":21.6274,"ARG_OF_PERICENTER":239.6985,"MEAN_ANOMALY":317.4901,"EPHEMERIS_TYPE":0,"CLASSIFICATION_TYPE":"U","NORAD_CAT_ID":24786,"ELEMENT_SET_NO":999,"REV_AT_EPOCH":10533,"BSTAR":0,"MEAN_MOTION_DOT":-2.61e-6,"MEAN_MOTION_DDOT":0},{"OBJECT_NAME":"GOES 11","OBJECT_ID":"2000-022A","EPOCH":"2026-04-05T16:50:20.158944","MEAN_MOTION":0.99044683,"ECCENTRICITY":0.0005032,"INCLINATION":11.6498,"RA_OF_ASC_NODE":47.1314,"ARG_OF_PERICENTER":263.6622,"MEAN_ANOMALY":276.8347,"EPHEMERIS_TYPE":0,"CLASSIFICATION_TYPE":"U","NORAD_CAT_ID":26352,"ELEMENT_SET_NO":999,"REV_AT_EPOCH":5175,"BSTAR":0,"MEAN_MOTION_DOT":-2.85e-6,"MEAN_MOTION_DDOT":0},{"OBJECT_NAME":"GOES 12","OBJECT_ID":"2001-031A","EPOCH":"2026-04-05T15:15:20.123712","MEAN_MOTION":0.99140883,"ECCENTRICITY":0.0008473,"INCLINATION":12.0547,"RA_OF_ASC_NODE":37.8721,"ARG_OF_PERICENTER":302.549,"MEAN_ANOMALY":250.8366,"EPHEMERIS_TYPE":0,"CLASSIFICATION_TYPE":"U","NORAD_CAT_ID":26871,"ELEMENT_SET_NO":999,"REV_AT_EPOCH":9004,"BSTAR":0,"MEAN_MOTION_DOT":-2.26e-6,"MEAN_MOTION_DDOT":0},{"OBJECT_NAME":"EWS-G1 (GOES 13)","OBJECT_ID":"2006-018A","EPOCH":"2026-04-05T19:56:48.806016","MEAN_MOTION":0.98784823,"ECCENTRICITY":0.0061865,"INCLINATION":4.3454,"RA_OF_ASC_NODE":77.2846,"ARG_OF_PERICENTER":275.1217,"MEAN_ANOMALY":216.4528,"EPHEMERIS_TYPE":0,"CLASSIFICATION_TYPE":"U","NORAD_CAT_ID":29155,"ELEMENT_SET_NO":999,"REV_AT_EPOCH":4253,"BSTAR":0,"MEAN_MOTION_DOT":5.2e-7,"MEAN_MOTION_DDOT":0},{"OBJECT_NAME":"GOES 14","OBJECT_ID":"2009-033A","EPOCH":"2026-04-05T18:44:46.646016","MEAN_MOTION":1.00112185,"ECCENTRICITY":0.0001844,"INCLINATION":1.503,"RA_OF_ASC_NODE":83.9171,"ARG_OF_PERICENTER":299.1245,"MEAN_ANOMALY":274.7211,"EPHEMERIS_TYPE":0,"CLASSIFICATION_TYPE":"U","NORAD_CAT_ID":35491,"ELEMENT_SET_NO":999,"REV_AT_EPOCH":586,"BSTAR":0,"MEAN_MOTION_DOT":4.5e-7,"MEAN_MOTION_DDOT":0},{"OBJECT_NAME":"EWS-G2 (GOES 15)","OBJECT_ID":"2010-008A","EPOCH":"2026-04-05T19:22:32.703744","MEAN_MOTION":1.00271609,"ECCENTRICITY":0.0003425,"INCLINATION":1.0872,"RA_OF_ASC_NODE":84.2709,"ARG_OF_PERICENTER":17.981,"MEAN_ANOMALY":85.7619,"EPHEMERIS_TYPE":0,"CLASSIFICATION_TYPE":"U","NORAD_CAT_ID":36411,"ELEMENT_SET_NO":999,"REV_AT_EPOCH":5891,"BSTAR":0,"MEAN_MOTION_DOT":2.4e-7,"MEAN_MOTION_DDOT":0},{"OBJECT_NAME":"GOES 16","OBJECT_ID":"2016-071A","EPOCH":"2026-04-05T15:40:17.731200","MEAN_MOTION":1.00272283,"ECCENTRICITY":0.0001814,"INCLINATION":0.1757,"RA_OF_ASC_NODE":85.2897,"ARG_OF_PERICENTER":247.8363,"MEAN_ANOMALY":351.2025,"EPHEMERIS_TYPE":0,"CLASSIFICATION_TYPE":"U","NORAD_CAT_ID":41866,"ELEMENT_SET_NO":999,"REV_AT_EPOCH":3437,"BSTAR":0,"MEAN_MOTION_DOT":-8.9e-7,"MEAN_MOTION_DDOT":0},{"OBJECT_NAME":"GOES 17","OBJECT_ID":"2018-022A","EPOCH":"2026-04-05T14:01:51.192192","MEAN_MOTION":1.00271532,"ECCENTRICITY":0.0001188,"INCLINATION":0.7512,"RA_OF_ASC_NODE":86.7858,"ARG_OF_PERICENTER":260.2628,"MEAN_ANOMALY":327.7985,"EPHEMERIS_TYPE":0,"CLASSIFICATION_TYPE":"U","NORAD_CAT_ID":43226,"ELEMENT_SET_NO":999,"REV_AT_EPOCH":2969,"BSTAR":0,"MEAN_MOTION_DOT":-1.81e-6,"MEAN_MOTION_DDOT":0}]
